KUIPER-00074            
1 64821U 25151F   25278.16671295 -.00018964  00000+0 -12858-2 0  9991
2 64821  51.8879 260.1403 0013705 105.4363   7.7668 15.05462927  5342
KUIPER-00075            
1 64822U 25151G   25278.16302601  .00048779  00000+0  12680-2 0  9992
2 64822  51.8757 256.8347 0006340  69.2322 290.9344 15.38434785 12438
KUIPER-00076            
1 64823U 25151H   25278.16671295 -.01769416  00000+0 -15649+0 0  9997
2 64823  51.8896 261.7066 0005812  96.4528  67.6645 14.99517412  4618
KUIPER-00077            
1 64824U 25151J   25278.16671295 -.00037350  00000+0 -46206-2 0  9998
2 64824  51.8984 265.8174 0006524  52.6775 254.8343 14.82340142  5196
KUIPER-00078            
1 64825U 25151K   25278.16671295 -.01195096  00000+0 -12911+0 0  9995
2 64825  51.8942 263.6089 0008234 118.7126 194.6252 14.90950600  5708
KUIPER-00079            
1 64826U 25151L   25278.20957888  .00004212  00000+0  58129-3 0  9997
2 64826  51.8985 267.8062 0012783  86.5928 273.6496 14.79895318 13482
KUIPER-00080            
1 64827U 25151M   25278.20499566 -.00000397  00000+0 -22781-4 0  9990
2 64827  51.8979 268.1256 0006249 108.5007 251.6635 14.79953037 12289
KUIPER-00082            
1 64828U 25151N   25278.16671295 -.00750771  00000+0 -41998-1 0  9993
2 64828  51.8882 259.0187 0006219  86.6631 309.4477 15.15590887  5763
KUIPER-00083            
1 64829U 25151P   25278.16671295 -.00585904  00000+0 -64445-1 0  9990
2 64829  51.9212 263.5995 0010913  88.0470  82.4775 14.89589826  5830
KUIPER-00084            
1 64830U 25151Q   25278.16237338  .00005864  00000+0  81068-3 0  9990
2 64830  51.8982 273.2734 0011737  65.6793 294.5393 14.79213145 12206
KUIPER-00085            
1 64831U 25151R   25278.16671295 -.00523390  00000+0 -30643-1 0  9997
2 64831  51.8917 259.1456 0009969  81.5002 179.8869 15.13473238  4432
KUIPER-00086            
1 64832U 25151S   25278.16671295 -.00040505  00000+0 -50937-2 0  9999
2 64832  51.8984 265.8235 0011720  91.5576  41.4503 14.81660849  3697
KUIPER-00087            
1 64833U 25151T   25278.16671295 -.01005932  00000+0 -34256-1 0  9991
2 64833  51.8800 257.2043 0007702  90.2369 102.8410 15.32436590  4228
KUIPER-00089            
1 64834U 25151U   25278.16671295 -.00888646  00000+0 -42241-1 0  9995
2 64834  51.8883 258.2495 0006056  81.3905 329.0532 15.21216111  3466
KUIPER-00090            
1 64835U 25151V   25277.43198830  .00050616  00000+0  13879-2 0  9996
2 64835  51.8773 260.9164 0008852  88.0198 272.1802 15.36751412 12318
KUIPER-00091            
1 64836U 25151W   25278.16671295 -.00884081  00000+0 -37614-1 0  9994
2 64836  51.8800 257.6565 0009057  83.0039 212.4092 15.25311972  2526
KUIPER-00092            
1 64837U 25151X   25278.19954161 -.00389167  00000+0 -26824-1 0  9990
2 64837  51.8863 260.0392 0009695  58.2711 301.9206 15.07318172 13602
KUIPER-00093            
1 64838U 25151Y   25278.16671295 -.01054998  00000+0 -93786-1 0  9995
2 64838  51.8927 261.8309 0015168  91.7096 254.5842 14.98563429  4752
KUIPER-00094            
1 64839U 25151Z   25278.16671295 -.00008177  00000+0 -36185-3 0  9995
2 64839  51.8839 258.3275 0008774  91.5096 220.8748 15.19792334  4890
KUIPER-00081            
1 65132U 25171A   25278.03251345  .00027646  00000+0  75077-3 0  9993
2 65132  51.8742 141.5397 0004354 317.5247  42.5402 15.37368790  9635
KUIPER-00088            
1 65133U 25171B   25278.16671295 -.00602024  00000+0 -21966-1 0  9995
2 65133  51.8780 141.1243 0007024 309.5904 324.6747 15.29793552  4878
KUIPER-00095            
1 65134U 25171C   25277.92496677  .00071392  00000+0  19530-2 0  9999
2 65134  51.8730 142.3110 0003669 352.7462   7.3471 15.36699684  9615
KUIPER-00096            
1 65135U 25171D   25278.10930375  .00031734  00000+0  86290-3 0  9993
2 65135  51.8743 141.2968 0004154 320.1445  39.9236 15.37257017  9643
KUIPER-00097            
1 65136U 25171E   25277.92564208  .00090853  00000+0  24564-2 0  9993
2 65136  51.8784 142.3153 0003788 342.9017  17.1841 15.36946686  9608
KUIPER-00098            
1 65137U 25171F   25277.90510707  .00042004  00000+0  11964-2 0  9992
2 65137  51.8753 142.1884 0005619 297.6641  62.3775 15.35669538  8950
KUIPER-00099            
1 65138U 25171G   25278.10147495  .00089636  00000+0  23893-2 0  9992
2 65138  51.8755 141.2554 0005682 319.8935  40.1631 15.37386299  9633
KUIPER-00100            
1 65139U 25171H   25277.91401750  .00056925  00000+0  15364-2 0  9997
2 65139  51.8750 142.2393 0004883 318.8410  41.2208 15.37214402  9605
KUIPER-00102            
1 65140U 25171J   25278.12087139  .00174912  00000+0  47118-2 0  9993
2 65140  51.8720 141.3694 0004165 351.1382   8.9530 15.36651087  9633
KUIPER-00103            
1 65141U 25171K   25278.16671295 -.00860834  00000+0 -44856-1 0  9992
2 65141  51.8886 142.3332 0005372 331.2865  71.8582 15.18000215  4871
KUIPER-00104            
1 65142U 25171L   25277.91682073  .00049372  00000+0  13447-2 0  9998
2 65142  51.8752 142.2675 0004010 319.7453  40.3236 15.36999504  9606
KUIPER-00105            
1 65143U 25171M   25278.16671295 -.01131428  00000+0 -44433-1 0  9996
2 65143  51.8783 141.1876 0007180 315.3152 261.4272 15.28206729  2892
KUIPER-00106            
1 65144U 25171N   25278.16671295 -.00793230  00000+0 -43285-1 0  9995
2 65144  51.8922 142.5050 0006423 298.3224 322.4314 15.16602808  5057
KUIPER-00107            
1 65145U 25171P   25277.65253637  .00063122  00000+0  17067-2 0  9993
2 65145  51.8741 143.4972 0004014 335.1544  24.9249 15.37117301  9573
KUIPER-00108            
1 65146U 25171Q   25277.92703723  .00079960  00000+0  21773-2 0  9996
2 65146  51.8762 142.3333 0005173 337.0620  23.0135 15.36784245  9614
KUIPER-00109            
1 65147U 25171R   25277.90549909  .00065319  00000+0  17512-2 0  9998
2 65147  51.8759 142.1871 0005221 307.4865  52.5647 15.37358889  9608
KUIPER-00110            
1 65148U 25171S   25278.16671295 -.01391486  00000+0 -65331-1 0  9993
2 65148  51.8800 141.7747 0008237 321.1087 318.0795 15.22438950  5750
KUIPER-00111            
1 65149U 25171T   25278.16671295 -.01328540  00000+0 -83334-1 0  9998
2 65149  51.8864 143.3576 0005831 333.5137 292.5884 15.11776985  3180
KUIPER-00112            
1 65150U 25171U   25277.99270777  .00060790  00000+0  16624-2 0  9996
2 65150  51.8747 142.0207 0004661 354.7576   5.3361 15.36779120  9616
KUIPER-00114            
1 65151U 25171V   25278.16671295 -.01347498  00000+0 -10552+0 0  9994
2 65151  51.8898 144.7957 0006071 317.8945 222.6818 15.03721175  3102
KUIPER-00115            
1 65152U 25171W   25278.16671295 -.00615679  00000+0 -27085-1 0  9994
2 65152  51.8813 141.6448 0008684 332.5690  45.7117 15.23689711  5811
KUIPER-00116            
1 65153U 25171X   25278.16671295 -.00874639  00000+0 -56482-1 0  9991
2 65153  51.9032 143.5250 0006353 299.3141 173.1843 15.10468228  5759
KUIPER-00118            
1 65154U 25171Y   25278.16671295 -.00793773  00000+0 -62042-1 0  9990
2 65154  51.9026 144.6436 0004135 312.3157  44.2019 15.03225853  4951
KUIPER-00119            
1 65155U 25171Z   25278.16671295 -.01251942  00000+0 -41869-1 0  9993
2 65155  51.8767 140.9422 0006123 306.0412  40.9154 15.33177357  5503
